{
    "links": {
        "self": "http://www.neowsapp.com/rest/v1/neo/3674961?api_key=iIulBulltgU6a56xZRHN4H3l9WmuAYTsLGpBGhQ2"
    },
    "id": "3674961",
    "neo_reference_id": "3674961",
    "name": "(2014 OD4)",
    "designation": "2014 OD4",
    "nasa_jpl_url": "http://ssd.jpl.nasa.gov/sbdb.cgi?sstr=3674961",
    "absolute_magnitude_h": 24.4,
    "estimated_diameter": {
        "kilometers": {
            "estimated_diameter_min": 0.0350392641,
            "estimated_diameter_max": 0.0783501764
        },
        "meters": {
            "estimated_diameter_min": 35.0392641108,
            "estimated_diameter_max": 78.3501764334
        },
        "miles": {
            "estimated_diameter_min": 0.0217723826,
            "estimated_diameter_max": 0.0486845275
        },
        "feet": {
            "estimated_diameter_min": 114.9582192654,
            "estimated_diameter_max": 257.0543928497
        }
    },
    "is_potentially_hazardous_asteroid": false,
    "close_approach_data": [
        {
            "close_approach_date": "2014-07-27",
            "close_approach_date_full": "2014-Jul-27 12:39",
            "epoch_date_close_approach": 1406464740000,
            "relative_velocity": {
                "kilometers_per_second": "9.661505992",
                "kilometers_per_hour": "34781.4215710917",
                "miles_per_hour": "21611.8227534375"
            },
            "miss_distance": {
                "astronomical": "0.0838098902",
                "lunar": "32.6020472878",
                "kilometers": "12537781.058853874",
                "miles": "7790615.8943125012"
            },
            "orbiting_body": "Earth"
        },
        {
            "close_approach_date": "2027-08-01",
            "close_approach_date_full": "2027-Aug-01 13:05",
            "epoch_date_close_approach": 1817125500000,
            "relative_velocity": {
                "kilometers_per_second": "11.4069546149",
                "kilometers_per_hour": "41065.0366136695",
                "miles_per_hour": "25516.2167780882"
            },
            "miss_distance": {
                "astronomical": "0.1935600969",
                "lunar": "75.2948776941",
                "kilometers": "28956178.213233603",
                "miles": "17992534.8167776014"
            },
            "orbiting_body": "Earth"
        }
    ],
    "orbital_data": {
        "orbit_id": "5",
        "orbit_determination_date": "2017-04-06 08:39:31",
        "first_observation_date": "2014-07-25",
        "last_observation_date": "2014-08-04",
        "data_arc_in_days": 10,
        "observations_used": 18,
        "orbit_uncertainty": "7",
        "minimum_orbit_intersection": ".0717219",
        "jupiter_tisserand_invariant": "4.995",
        "epoch_osculation": "2459000.5",
        "eccentricity": ".1557693039348331",
        "semi_major_axis": "1.280155658056202",
        "inclination": "18.37691391917372",
        "ascending_node_longitude": "306.6149915969459",
        "orbital_period": "529.0449789594174",
        "perihelion_distance": "1.080746702272549",
        "perihelion_argument": "342.7868010066206",
        "aphelion_distance": "1.479564613839855",
        "perihelion_time": "2458963.932346382064",
        "mean_anomaly": "24.88324400762686",
        "mean_motion": ".6804714425379987",
        "equinox": "J2000",
        "orbit_class": {
            "orbit_class_type": "AMO",
            "orbit_class_description": "Near-Earth asteroid orbits similar to that of 1221 Amor",
            "orbit_class_range": "1.017 AU < q (perihelion) < 1.3 AU"
        }
    },
    "is_sentry_object": false
}